{
  "norad_id": 50201,
  "name": "STARLINK-3255",
  "history": [
    {
      "epoch": "2026-03-28T22:00:01.999584Z",
      "apogee_km": 325.7631457300631,
      "perigee_km": 319.134658132436,
      "latitude_deg": -11.47307863806955,
      "longitude_deg": 77.07070817370835,
      "height_km": 326.0939420850972,
      "semi_major_axis_km": 6700.585901931249,
      "eccentricity": 0.00049462,
      "inclination_deg": 53.1953,
      "raan_deg": 44.7241,
      "arg_perigee_deg": 94.9473,
      "mean_anomaly_deg": 99.1935,
      "mean_motion_rev_day": 15.82827522
    },
    {
      "epoch": "2026-03-29T03:14:43.565280Z",
      "apogee_km": 325.5266832154175,
      "perigee_km": 319.0473731801494,
      "latitude_deg": -3.2006131510870626e-05,
      "longitude_deg": 168.39988804341166,
      "height_km": 323.46272793853745,
      "semi_major_axis_km": 6700.424028197783,
      "eccentricity": 0.0004835,
      "inclination_deg": 53.1957,
      "raan_deg": 43.6271,
      "arg_perigee_deg": 94.5847,
      "mean_anomaly_deg": 265.5729,
      "mean_motion_rev_day": 15.82884881
    },
    {
      "epoch": "2026-03-30T03:29:16.280448Z",
      "apogee_km": 324.43103673356836,
      "perigee_km": 318.0552366574757,
      "latitude_deg": -2.775760772412987e-05,
      "longitude_deg": 158.69337776354996,
      "height_km": 322.7149984148035,
      "semi_major_axis_km": 6699.380136695522,
      "eccentricity": 0.00047585,
      "inclination_deg": 53.1961,
      "raan_deg": 38.5525,
      "arg_perigee_deg": 100.0204,
      "mean_anomaly_deg": 260.1357,
      "mean_motion_rev_day": 15.83254861
    },
    {
      "epoch": "2026-03-30T14:00:03.000384Z",
      "apogee_km": 323.97707073707716,
      "perigee_km": 317.6146922435528,
      "latitude_deg": -17.31789376377999,
      "longitude_deg": -15.048561891528651,
      "height_km": 327.3677406882016,
      "semi_major_axis_km": 6698.932881490315,
      "eccentricity": 0.00047488,
      "inclination_deg": 53.1954,
      "raan_deg": 36.351,
      "arg_perigee_deg": 103.7714,
      "mean_anomaly_deg": 234.6734,
      "mean_motion_rev_day": 15.83413423
    },
    {
      "epoch": "2026-03-30T22:00:00.999936Z",
      "apogee_km": 323.60585942345733,
      "perigee_km": 317.16737249426933,
      "latitude_deg": 52.10242733189062,
      "longitude_deg": -50.74248033348928,
      "height_km": 323.7757144506229,
      "semi_major_axis_km": 6698.523615958863,
      "eccentricity": 0.00048059,
      "inclination_deg": 53.1972,
      "raan_deg": 34.6751,
      "arg_perigee_deg": 105.7268,
      "mean_anomaly_deg": 333.8599,
      "mean_motion_rev_day": 15.8355854
    },
    {
      "epoch": "2026-03-31T20:00:01.999008Z",
      "apogee_km": 322.8245131917265,
      "perigee_km": 316.430827037635,
      "latitude_deg": -53.335342871941116,
      "longitude_deg": 168.96256079748963,
      "height_km": 341.10108396935686,
      "semi_major_axis_km": 6697.7646701146805,
      "eccentricity": 0.0004773,
      "inclination_deg": 53.1954,
      "raan_deg": 30.0653,
      "arg_perigee_deg": 111.7943,
      "mean_anomaly_deg": 157.0495,
      "mean_motion_rev_day": 15.83827705
    },
    {
      "epoch": "2026-04-01T20:00:01.999008Z",
      "apogee_km": 321.89135404876924,
      "perigee_km": 315.554785050962,
      "latitude_deg": -27.252764151147776,
      "longitude_deg": 97.3703552259522,
      "height_km": 327.2833456566809,
      "semi_major_axis_km": 6696.860069549865,
      "eccentricity": 0.0004731,
      "inclination_deg": 53.1956,
      "raan_deg": 25.0355,
      "arg_perigee_deg": 116.3474,
      "mean_anomaly_deg": 98.203,
      "mean_motion_rev_day": 15.84148627
    },
    {
      "epoch": "2026-04-02T20:00:01.999008Z",
      "apogee_km": 320.6074437025045,
      "perigee_km": 314.4273546920467,
      "latitude_deg": 14.655313340820983,
      "longitude_deg": 57.5987569701935,
      "height_km": 315.33584543960677,
      "semi_major_axis_km": 6695.654399197276,
      "eccentricity": 0.0004615,
      "inclination_deg": 53.1958,
      "raan_deg": 20.0025,
      "arg_perigee_deg": 121.8465,
      "mean_anomaly_deg": 39.7139,
      "mean_motion_rev_day": 15.84576527
    },
    {
      "epoch": "2026-04-02T22:00:01.999584Z",
      "apogee_km": 320.3654342338641,
      "perigee_km": 314.287024895536,
      "latitude_deg": -52.74780326804496,
      "longitude_deg": 140.2633289405189,
      "height_km": 338.39696132655126,
      "semi_major_axis_km": 6695.4632295647,
      "eccentricity": 0.00045392,
      "inclination_deg": 53.1956,
      "raan_deg": 19.5833,
      "arg_perigee_deg": 121.6725,
      "mean_anomaly_deg": 155.5476,
      "mean_motion_rev_day": 15.84644392
    },
    {
      "epoch": "2026-04-03T20:00:01.999008Z",
      "apogee_km": 319.30188144387193,
      "perigee_km": 313.313031433142,
      "latitude_deg": 48.88382211296365,
      "longitude_deg": 4.324550983258951,
      "height_km": 318.99884152590454,
      "semi_major_axis_km": 6694.444456438507,
      "eccentricity": 0.0004473,
      "inclination_deg": 53.1952,
      "raan_deg": 14.9665,
      "arg_perigee_deg": 127.6442,
      "mean_anomaly_deg": 342.5275,
      "mean_motion_rev_day": 15.85006137
    },
    {
      "epoch": "2026-04-04T06:00:02.000160Z",
      "apogee_km": 318.6008570877257,
      "perigee_km": 313.02814246416165,
      "latitude_deg": -24.383249980586537,
      "longitude_deg": 70.57987962363394,
      "height_km": 325.4574195484757,
      "semi_major_axis_km": 6693.951499775943,
      "eccentricity": 0.00041625,
      "inclination_deg": 53.1952,
      "raan_deg": 12.8694,
      "arg_perigee_deg": 127.0349,
      "mean_anomaly_deg": 202.2102,
      "mean_motion_rev_day": 15.85181225
    }
  ]
}